$$SOE
2460721.500000000, A.D. 2025-Feb-15 00:00:00.0000, -4.220619007465685E+08, -1.217807009646473E+08, -6.862968584062426E+07,
2460728.500000000, A.D. 2025-Feb-22 00:00:00.0000, -4.186390877229090E+08, -1.304126474703756E+08, -6.802355722566576E+07,
2460735.500000000, A.D. 2025-Mar-01 00:00:00.0000, -4.149836482920149E+08, -1.389721789639951E+08, -6.737962969177735E+07,
2460742.500000000, A.D. 2025-Mar-08 00:00:00.0000, -4.110961476138485E+08, -1.474540486912505E+08, -6.669802379032805E+07,
2460749.500000000, A.D. 2025-Mar-15 00:00:00.0000, -4.069772112701011E+08, -1.558529574960709E+08, -6.597887041792307E+07,
2460756.500000000, A.D. 2025-Mar-22 00:00:00.0000, -4.026275304358903E+08, -1.641635506409801E+08, -6.522231107089765E+07,
2460763.500000000, A.D. 2025-Mar-29 00:00:00.0000, -3.980478659145033E+08, -1.723804168931293E+08, -6.442849844768508E+07,
2460770.500000000, A.D. 2025-Apr-05 00:00:00.0000, -3.932390507211907E+08, -1.804980867391313E+08, -6.359759717394525E+07,
2460777.500000000, A.D. 2025-Apr-12 00:00:00.0000, -3.882019931502289E+08, -1.885110296264486E+08, -6.272978446578588E+07,
2460784.500000000, A.D. 2025-Apr-19 00:00:00.0000, -3.829376805199116E+08, -1.964136511174327E+08, -6.182525078655706E+07,
2460791.500000000, A.D. 2025-Apr-26 00:00:00.0000, -3.774471833331471E+08, -2.042002901672088E+08, -6.088420054036523E+07,
2460798.500000000, A.D. 2025-May-03 00:00:00.0000, -3.717316597523330E+08, -2.118652165166358E+08, -5.990685281385571E+07,
2460805.500000000, A.D. 2025-May-10 00:00:00.0000, -3.657923603750337E+08, -2.194026282031236E+08, -5.889344217153463E+07,
2460812.500000000, A.D. 2025-May-17 00:00:00.0000, -3.596306332907094E+08, -2.268066492421569E+08, -5.784421951488909E+07,
2460819.500000000, A.D. 2025-May-24 00:00:00.0000, -3.532479292624292E+08, -2.340713275461187E+08, -5.675945302905403E+07,
2460826.500000000, A.D. 2025-May-31 00:00:00.0000, -3.466458066337680E+08, -2.411906327822165E+08, -5.563942923293118E+07,
2460833.500000000, A.D. 2025-Jun-07 00:00:00.0000, -3.398259363793942E+08, -2.481584529785795E+08, -5.448445400017275E+07,
2460840.500000000, A.D. 2025-Jun-14 00:00:00.0000, -3.327901096808914E+08, -2.549685905613144E+08, -5.329485339119379E+07,
2460847.500000000, A.D. 2025-Jun-21 00:00:00.0000, -3.255402468291942E+08, -2.616147611133621E+08, -5.207097467817338E+07,
2460854.500000000, A.D. 2025-Jun-28 00:00:00.0000, -3.180784043458078E+08, -2.680905931124561E+08, -5.081318770903967E+07,
2460861.500000000, A.D. 2025-Jul-05 00:00:00.0000, -3.104067818598090E+08, -2.743896265145253E+08, -4.952188629788952E+07,
2460868.500000000, A.D. 2025-Jul-12 00:00:00.0000, -3.025277299506464E+08, -2.805053110127975E+08, -4.819748960089050E+07,
2460875.500000000, A.D. 2025-Jul-19 00:00:00.0000, -2.944437587858723E+08, -2.864310045765148E+08, -4.684044354475814E+07,
2460882.500000000, A.D. 2025-Jul-26 00:00:00.0000, -2.861575473634433E+08, -2.921599723592003E+08, -4.545122233485086E+07,
2460889.500000000, A.D. 2025-Aug-02 00:00:00.0000, -2.776719533139656E+08, -2.976853859921006E+08, -4.403033005046134E+07,
2460896.500000000, A.D. 2025-Aug-09 00:00:00.0000, -2.689900232605402E+08, -3.030003233180634E+08, -4.257830233379953E+07,
2460903.500000000, A.D. 2025-Aug-16 00:00:00.0000, -2.601150036797226E+08, -3.080977686734716E+08, -4.109570818775988E+07,
2460910.500000000, A.D. 2025-Aug-23 00:00:00.0000, -2.510503519905134E+08, -3.129706137506447E+08, -3.958315191060390E+07,
2460917.500000000, A.D. 2025-Aug-30 00:00:00.0000, -2.417997475608790E+08, -3.176116583804114E+08, -3.804127514176430E+07,
2460924.500000000, A.D. 2025-Sep-06 00:00:00.0000, -2.323671040664316E+08, -3.220136102931392E+08, -3.647075880896197E+07,
2460931.500000000, A.D. 2025-Sep-13 00:00:00.0000, -2.227565848857446E+08, -3.261690864056689E+08, -3.487232502808838E+07,
2460938.500000000, A.D. 2025-Sep-20 00:00:00.0000, -2.129726182712525E+08, -3.300706173513881E+08, -3.324673939226405E+07,
2460945.500000000, A.D. 2025-Sep-27 00:00:00.0000, -2.030199112480645E+08, -3.337106522216361E+08, -3.159481349415931E+07,
2460952.500000000, A.D. 2025-Oct-04 00:00:00.0000, -1.929034642642967E+08, -3.370815630641672E+08, -2.991740745276065E+07,
2460959.500000000, A.D. 2025-Oct-11 00:00:00.0000, -1.826285869678417E+08, -3.401756501727825E+08, -2.821543248663276E+07,
2460966.500000000, A.D. 2025-Oct-18 00:00:00.0000, -1.722009148205640E+08, -3.429851485411494E+08, -2.648985358054420E+07,
2460973.500000000, A.D. 2025-Oct-25 00:00:00.0000, -1.616264263977213E+08, -3.455022355773759E+08, -2.474169225500992E+07,
2460980.500000000, A.D. 2025-Nov-01 00:00:00.0000, -1.509114613130511E+08, -3.477190401811146E+08, -2.297202943773434E+07,
2460987.500000000, A.D. 2025-Nov-08 00:00:00.0000, -1.400627387064526E+08, -3.496276533408432E+08, -2.118200843777104E+07,
2460994.500000000, A.D. 2025-Nov-15 00:00:00.0000, -1.290873761072275E+08, -3.512201404444066E+08, -1.937283803386241E+07,
2461001.500000000, A.D. 2025-Nov-22 00:00:00.0000, -1.179929082181689E+08, -3.524885552257493E+08, -1.754579568684366E+07,
2461008.500000000, A.D. 2025-Nov-29 00:00:00.0000, -1.067873057072220E+08, -3.534249543641894E+08, -1.570223075773068E+07,
2461015.500000000, A.D. 2025-Dec-06 00:00:00.0000, -9.547899620102942E+07, -3.540214130303914E+08, -1.384356751920888E+07,
2461022.500000000, A.D. 2025-Dec-13 00:00:00.0000, -8.407688694441226E+07, -3.542700449140143E+08, -1.197130825796178E+07,
2461029.500000000, A.D. 2025-Dec-20 00:00:00.0000, -7.259038551001562E+07, -3.541630258809320E+08, -1.008703668301660E+07,
2461036.500000000, A.D. 2025-Dec-27 00:00:00.0000, -6.102941948556946E+07, -3.536926188411766E+08, -8.192421303728610E+06,
2461043.500000000, A.D. 2026-Jan-03 00:00:00.0000, -4.940445642113529E+07, -3.528512006143986E+08, -6.289218663431197E+06,
2461050.500000000, A.D. 2026-Jan-10 00:00:00.0000, -3.772652371564973E+07, -3.516312916447141E+08, -4.379276459836558E+06,
2461057.500000000, A.D. 2026-Jan-17 00:00:00.0000, -2.600722796573646E+07, -3.500255888320514E+08, -2.464536541954145E+06,
2461064.500000000, A.D. 2026-Jan-24 00:00:00.0000, -1.425877342122815E+07, -3.480270016305532E+08, -5.470377439717203E+05,
2461071.500000000, A.D. 2026-Jan-31 00:00:00.0000, -2.493979210703311E+06, -3.456286915846495E+08, 1.371081492913350E+06,
2461078.500000000, A.D. 2026-Feb-07 00:00:00.0000, 9.273705077120971E+06, -3.428241155057606E+08, 3.287580759745121E+06,
2461085.500000000, A.D. 2026-Feb-14 00:00:00.0000, 2.103018610491122E+07, -3.396070724253696E+08, 5.200115622648060E+06,
2461092.500000000, A.D. 2026-Feb-21 00:00:00.0000, 3.276071662050226E+07, -3.359717538356844E+08, 7.106235955125928E+06,
2461099.500000000, A.D. 2026-Feb-28 00:00:00.0000, 4.444988781694640E+07, -3.319127961129634E+08, 9.003384934891686E+06,
2461106.500000000, A.D. 2026-Mar-07 00:00:00.0000, 5.608162269603361E+07, -3.274253370725399E+08, 1.088889882269862E+07,
2461113.500000000, A.D. 2026-Mar-14 00:00:00.0000, 6.763917379322439E+07, -3.225050789301658E+08, 1.276000717250693E+07,
2461120.500000000, A.D. 2026-Mar-21 00:00:00.0000, 7.910512767094073E+07, -3.171483546489983E+08, 1.461383364760326E+07,
2461127.500000000, A.D. 2026-Mar-28 00:00:00.0000, 9.046141482966314E+07, -3.113521964412878E+08, 1.644739781830800E+07,
2461134.500000000, A.D. 2026-Apr-04 00:00:00.0000, 1.016893251203118E+08, -3.051144070935875E+08, 1.825761802930991E+07,
2461141.500000000, A.D. 2026-Apr-11 00:00:00.0000, 1.127695296380147E+08, -2.984336340725041E+08, 2.004131539628893E+07,
2461148.500000000, A.D. 2026-Apr-18 00:00:00.0000, 1.236821099681698E+08, -2.913094458968768E+08, 2.179521903127195E+07,
2461155.500000000, A.D. 2026-Apr-25 00:00:00.0000, 1.344065955309453E+08, -2.837424101105043E+08, 2.351597260557228E+07,
2461162.500000000, A.D. 2026-May-02 00:00:00.0000, 1.449220097257180E+08, -2.757341720927685E+08, 2.520014235047005E+07,
2461169.500000000, A.D. 2026-May-09 00:00:00.0000, 1.552069256208011E+08, -2.672875338353661E+08, 2.684422657471636E+07,
2461176.500000000, A.D. 2026-May-16 00:00:00.0000, 1.652395321093389E+08, -2.584065314633986E+08, 2.844466675897354E+07,
2461183.500000000, A.D. 2026-May-23 00:00:00.0000, 1.749977110146575E+08, -2.490965092491171E+08, 2.999786037167874E+07,
2461190.500000000, A.D. 2026-May-30 00:00:00.0000, 1.844591233531760E+08, -2.393641884243946E+08, 3.150017566396503E+07,
2461197.500000000, A.D. 2026-Jun-06 00:00:00.0000, 1.936013045475533E+08, -2.292177325549854E+08, 3.294796821488749E+07,
2461204.500000000, A.D. 2026-Jun-13 00:00:00.0000, 2.024017721601298E+08, -2.186668076551555E+08, 3.433759888145415E+07,
2461211.500000000, A.D. 2026-Jun-20 00:00:00.0000, 2.108381453110200E+08, -2.077226324165047E+08, 3.566545337429024E+07,
2461218.500000000, A.D. 2026-Jun-27 00:00:00.0000, 2.188882734755278E+08, -1.963980171473402E+08, 3.692796347836813E+07,
2461225.500000000, A.D. 2026-Jul-04 00:00:00.0000, 2.265303737567965E+08, -1.847073904528373E+08, 3.812162969807462E+07,
2461232.500000000, A.D. 2026-Jul-11 00:00:00.0000, 2.337431756708520E+08, -1.726668120958350E+08, 3.924304508405083E+07,
2461239.500000000, A.D. 2026-Jul-18 00:00:00.0000, 2.405060720004373E+08, -1.602939704341114E+08, 4.028891997532745E+07,
2461246.500000000, A.D. 2026-Jul-25 00:00:00.0000, 2.467992738904297E+08, -1.476081630325885E+08, 4.125610734427488E+07,
2461253.500000000, A.D. 2026-Aug-01 00:00:00.0000, 2.526039680821967E+08, -1.346302593465416E+08, 4.214162837759201E+07,
2461260.500000000, A.D. 2026-Aug-08 00:00:00.0000, 2.579024740843018E+08, -1.213826446691090E+08, 4.294269786877852E+07,
2461267.500000000, A.D. 2026-Aug-15 00:00:00.0000, 2.626783990671792E+08, -1.078891444201848E+08, 4.365674898682956E+07,
2461274.500000000, A.D. 2026-Aug-22 00:00:00.0000, 2.669167869536920E+08, -9.417492751812729E+07, 4.428145714007221E+07,
2461281.500000000, A.D. 2026-Aug-29 00:00:00.0000, 2.706042565738141E+08, -8.026639064987527E+07, 4.481476257259278E+07,
$$EOE